[{"OBJECT_NAME":"STARLINK-31298","OBJECT_ID":"2024-044R","EPOCH":"2026-03-09T19:21:22.042368","MEAN_MOTION":15.27567788,"ECCENTRICITY":7.093e-5,"INCLINATION":43.0002,"RA_OF_ASC_NODE":106.3495,"ARG_OF_PERICENTER":284.3027,"MEAN_ANOMALY":75.7746,"EPHEMERIS_TYPE":0,"CLASSIFICATION_TYPE":"U","NORAD_CAT_ID":59167,"ELEMENT_SET_NO":999,"REV_AT_EPOCH":11358,"BSTAR":-2.2173083e-5,"MEAN_MOTION_DOT":-8.72e-6,"MEAN_MOTION_DDOT":0},{"OBJECT_NAME":"QAEM 100 R\/B","OBJECT_ID":"2024-165A","EPOCH":"2026-03-09T23:28:11.930304","MEAN_MOTION":15.14187295,"ECCENTRICITY":0.0059581,"INCLINATION":64.0756,"RA_OF_ASC_NODE":359.5576,"ARG_OF_PERICENTER":312.0209,"MEAN_ANOMALY":47.5844,"EPHEMERIS_TYPE":0,"CLASSIFICATION_TYPE":"U","NORAD_CAT_ID":61071,"ELEMENT_SET_NO":999,"REV_AT_EPOCH":8183,"BSTAR":0.0003372463,"MEAN_MOTION_DOT":6.252e-5,"MEAN_MOTION_DDOT":0}]
